{"type": "FeatureCollection", "features": [ {"type": "Feature", "properties": {"norad_id": 38552, "name": "METEOSAT-10 (MSG-3)", "group": "weather", "lat": 1.0339751057829283, "lon": 75.51218889722298, "alt_km": 35789.24594954419, "timestamp": "2025-12-25T22:42:16.639411+00:00", "meta": {"OBJECT_NAME": "METEOSAT-10 (MSG-3)", "OBJECT_ID": "2012-035B", "EPOCH": "2025-12-25T04:23:21.555168", "MEAN_MOTION": 1.00266615, "ECCENTRICITY": 0.0001469, "INCLINATION": 4.256, "RA_OF_ASC_NODE": 61.6882, "ARG_OF_PERICENTER": 266.4043, "MEAN_ANOMALY": 191.9794, "EPHEMERIS_TYPE": 0, "CLASSIFICATION_TYPE": "U", "NORAD_CAT_ID": 38552, "ELEMENT_SET_NO": 999, "REV_AT_EPOCH": 4911, "BSTAR": 0, "MEAN_MOTION_DOT": 1.4e-07, "MEAN_MOTION_DDOT": 0}, "tle": {"line1": "1 38552U 12035B   25359.18288837  .00000014  00000+0  00000+0 0  9996", "line2": "2 38552   4.2560  61.6882 0001469 266.4043 191.9794  1.00266615 49110"}}, "geometry": {"type": "Point", "coordinates": [75.51218889722298, 1.0339751057829283]}}, {"type": "Feature", "properties": {"norad_id": 38771, "name": "METOP-B", "group": "weather", "lat": -51.97270900312252, "lon": 60.94148026170927, "alt_km": 829.8135767613221, "timestamp": "2025-12-25T22:42:16.639422+00:00", "meta": {"OBJECT_NAME": "METOP-B", "OBJECT_ID": "2012-049A", "EPOCH": "2025-12-25T17:53:04.625088", "MEAN_MOTION": 14.21413188, "ECCENTRICITY": 0.0003278, "INCLINATION": 98.6781, "RA_OF_ASC_NODE": 49.4824, "ARG_OF_PERICENTER": 117.0556, "MEAN_ANOMALY": 243.0956, "EPHEMERIS_TYPE": 0, "CLASSIFICATION_TYPE": "U", "NORAD_CAT_ID": 38771, "ELEMENT_SET_NO": 999, "REV_AT_EPOCH": 68862, "BSTAR": 8.098e-05, "MEAN_MOTION_DOT": 1.33e-06, "MEAN_MOTION_DDOT": 0}, "tle": {"line1": "1 38771U 12049A   25359.74519242  .00000133  00000+0  80980-4 0  9995", "line2": "2 38771  98.6781  49.4824 0003278 117.0556 243.0956 14.21413188688625"}}, "geometry": {"type": "Point", "coordinates": [60.94148026170927, -51.97270900312252]}}, {"type": "Feature", "properties": {"norad_id": 39216, "name": "INSAT-3D", "group": "weather", "lat": 1.2762386643014878, "lon": -155.19406008842606, "alt_km": 35778.89368579713, "timestamp": "2025-12-25T22:42:16.639435+00:00", "meta": {"OBJECT_NAME": "INSAT-3D", "OBJECT_ID": "2013-038B", "EPOCH": "2025-12-25T12:13:38.614080", "MEAN_MOTION": 1.00274026, "ECCENTRICITY": 0.0001916, "INCLINATION": 1.4759, "RA_OF_ASC_NODE": 84.8528, "ARG_OF_PERICENTER": 156.7609, "MEAN_ANOMALY": 165.6101, "EPHEMERIS_TYPE": 0, "CLASSIFICATION_TYPE": "U", "NORAD_CAT_ID": 39216, "ELEMENT_SET_NO": 999, "REV_AT_EPOCH": 4533, "BSTAR": 0, "MEAN_MOTION_DOT": -3.18e-06, "MEAN_MOTION_DDOT": 0}, "tle": {"line1": "1 39216U 13038B   25359.50947470 -.00000318  00000+0  00000+0 0  9997", "line2": "2 39216   1.4759  84.8528 0001916 156.7609 165.6101  1.00274026 45332"}}, "geometry": {"type": "Point", "coordinates": [-155.19406008842606, 1.2762386643014878]}}, {"type": "Feature", "properties": {"norad_id": 39260, "name": "FENGYUN 3C", "group": "weather", "lat": -74.5849927420418, "lon": 9.728884035575657, "alt_km": 853.4272649362892, "timestamp": "2025-12-25T22:42:16.639446+00:00", "meta": {"OBJECT_NAME": "FENGYUN 3C", "OBJECT_ID": "2013-052A", "EPOCH": "2025-12-25T17:58:49.780992", "MEAN_MOTION": 14.15700193, "ECCENTRICITY": 0.0015013, "INCLINATION": 98.4779, "RA_OF_ASC_NODE": 336.7942, "ARG_OF_PERICENTER": 158.5788, "MEAN_ANOMALY": 201.6018, "EPHEMERIS_TYPE": 0, "CLASSIFICATION_TYPE": "U", "NORAD_CAT_ID": 39260, "ELEMENT_SET_NO": 999, "REV_AT_EPOCH": 63402, "BSTAR": 8.1345e-05, "MEAN_MOTION_DOT": 1.19e-06, "MEAN_MOTION_DDOT": 0}, "tle": {"line1": "1 39260U 13052A   25359.74918728  .00000119  00000+0  81345-4 0  9996", "line2": "2 39260  98.4779 336.7942 0015013 158.5788 201.6018 14.15700193634026"}}, "geometry": {"type": "Point", "coordinates": [9.728884035575657, -74.5849927420418]}}, {"type": "Feature", "properties": {"norad_id": 40069, "name": "METEOR-M 2", "group": "weather", "lat": 5.459140916206407, "lon": 157.84279678075757, "alt_km": 818.7709746993105, "timestamp": "2025-12-25T22:42:16.639457+00:00", "meta": {"OBJECT_NAME": "METEOR-M 2", "OBJECT_ID": "2014-037A", "EPOCH": "2025-12-25T18:30:29.149344", "MEAN_MOTION": 14.21391583, "ECCENTRICITY": 0.0005669, "INCLINATION": 98.492, "RA_OF_ASC_NODE": 336.8565, "ARG_OF_PERICENTER": 169.3679, "MEAN_ANOMALY": 190.762, "EPHEMERIS_TYPE": 0, "CLASSIFICATION_TYPE": "U", "NORAD_CAT_ID": 40069, "ELEMENT_SET_NO": 999, "REV_AT_EPOCH": 59468, "BSTAR": 0.00010866, "MEAN_MOTION_DOT": 1.95e-06, "MEAN_MOTION_DDOT": 0}, "tle": {"line1": "1 40069U 14037A   25359.77117071  .00000195  00000+0  10866-3 0  9997", "line2": "2 40069  98.4920 336.8565 0005669 169.3679 190.7620 14.21391583594680"}}, "geometry": {"type": "Point", "coordinates": [157.84279678075757, 5.459140916206407]}}, {"type": "Feature", "properties": {"norad_id": 40267, "name": "HIMAWARI-8", "group": "weather", "lat": -0.006988005831384296, "lon": -144.0832987856591, "alt_km": 35786.24875013998, "timestamp": "2025-12-25T22:42:16.639469+00:00", "meta": {"OBJECT_NAME": "HIMAWARI-8", "OBJECT_ID": "2014-060A", "EPOCH": "2025-12-25T15:22:38.523360", "MEAN_MOTION": 1.00271002, "ECCENTRICITY": 9.64e-05, "INCLINATION": 0.0429, "RA_OF_ASC_NODE": 197.6202, "ARG_OF_PERICENTER": 107.2474, "MEAN_ANOMALY": 160.8582, "EPHEMERIS_TYPE": 0, "CLASSIFICATION_TYPE": "U", "NORAD_CAT_ID": 40267, "ELEMENT_SET_NO": 999, "REV_AT_EPOCH": 4102, "BSTAR": 0, "MEAN_MOTION_DOT": -2.54e-06, "MEAN_MOTION_DDOT": 0}, "tle": {"line1": "1 40267U 14060A   25359.64072365 -.00000254  00000+0  00000+0 0  9997", "line2": "2 40267   0.0429 197.6202 0000964 107.2474 160.8582  1.00271002 41027"}}, "geometry": {"type": "Point", "coordinates": [-144.0832987856591, -0.006988005831384296]}}, {"type": "Feature", "properties": {"norad_id": 40367, "name": "FENGYUN 2G", "group": "weather", "lat": 5.135453190400114, "lon": 174.55134687871902, "alt_km": 35780.39139357594, "timestamp": "2025-12-25T22:42:16.639481+00:00", "meta": {"OBJECT_NAME": "FENGYUN 2G", "OBJECT_ID": "2014-090A", "EPOCH": "2025-12-25T18:56:24.512640", "MEAN_MOTION": 1.00281963, "ECCENTRICITY": 0.0001712, "INCLINATION": 5.1984, "RA_OF_ASC_NODE": 74.9353, "ARG_OF_PERICENTER": 171.7159, "MEAN_ANOMALY": 231.2546, "EPHEMERIS_TYPE": 0, "CLASSIFICATION_TYPE": "U", "NORAD_CAT_ID": 40367, "ELEMENT_SET_NO": 999, "REV_AT_EPOCH": 4026, "BSTAR": 0, "MEAN_MOTION_DOT": -2.82e-06, "MEAN_MOTION_DDOT": 0}, "tle": {"line1": "1 40367U 14090A   25359.78917260 -.00000282  00000+0  00000+0 0  9999", "line2": "2 40367   5.1984  74.9353 0001712 171.7159 231.2546  1.00281963 40267"}}, "geometry": {"type": "Point", "coordinates": [174.55134687871902, 5.135453190400114]}}, {"type": "Feature", "properties": {"norad_id": 40732, "name": "METEOSAT-11 (MSG-4)", "group": "weather", "lat": 0.6154904953160968, "lon": 84.42406968683807, "alt_km": 35787.71549319937, "timestamp": "2025-12-25T22:42:16.639493+00:00", "meta": {"OBJECT_NAME": "METEOSAT-11 (MSG-4)", "OBJECT_ID": "2015-034A", "EPOCH": "2025-12-25T16:31:52.263840", "MEAN_MOTION": 1.00271545, "ECCENTRICITY": 7e-05, "INCLINATION": 2.7688, "RA_OF_ASC_NODE": 71.966, "ARG_OF_PERICENTER": 136.703, "MEAN_ANOMALY": 142.9271, "EPHEMERIS_TYPE": 0, "CLASSIFICATION_TYPE": "U", "NORAD_CAT_ID": 40732, "ELEMENT_SET_NO": 999, "REV_AT_EPOCH": 547, "BSTAR": 0, "MEAN_MOTION_DOT": 8.2e-07, "MEAN_MOTION_DDOT": 0}, "tle": {"line1": "1 40732U 15034A   25359.68879935  .00000082  00000+0  00000+0 0  9996", "line2": "2 40732   2.7688  71.9660 0000700 136.7030 142.9271  1.00271545  5472"}}, "geometry": {"type": "Point", "coordinates": [84.42406968683807, 0.6154904953160968]}}, {"type": "Feature", "properties": {"norad_id": 41105, "name": "ELEKTRO-L 2", "group": "weather", "lat": -1.2721842340657161, "lon": 60.88979032220427, "alt_km": 35797.68781858272, "timestamp": "2025-12-25T22:42:16.639505+00:00", "meta": {"OBJECT_NAME": "ELEKTRO-L 2", "OBJECT_ID": "2015-074A", "EPOCH": "2025-12-24T23:18:12.436992", "MEAN_MOTION": 1.0027204, "ECCENTRICITY": 0.000354, "INCLINATION": 6.2545, "RA_OF_ASC_NODE": 72.6824, "ARG_OF_PERICENTER": 208.1447, "MEAN_ANOMALY": 147.994, "EPHEMERIS_TYPE": 0, "CLASSIFICATION_TYPE": "U", "NORAD_CAT_ID": 41105, "ELEMENT_SET_NO": 999, "REV_AT_EPOCH": 3675, "BSTAR": 0, "MEAN_MOTION_DOT": -9.8e-07, "MEAN_MOTION_DDOT": 0}, "tle": {"line1": "1 41105U 15074A   25358.97097728 -.00000098  00000+0  00000+0 0  9996", "line2": "2 41105   6.2545  72.6824 0003540 208.1447 147.9940  1.00272040 36753"}}, "geometry": {"type": "Point", "coordinates": [60.88979032220427, -1.2721842340657161]}}, {"type": "Feature", "properties": {"norad_id": 41752, "name": "INSAT-3DR", "group": "weather", "lat": 0.12140245848527428, "lon": 149.11158163565406, "alt_km": 35818.86727920526, "timestamp": "2025-12-25T22:42:16.639517+00:00", "meta": {"OBJECT_NAME": "INSAT-3DR", "OBJECT_ID": "2016-054A", "EPOCH": "2025-12-24T15:09:51.705216", "MEAN_MOTION": 1.00271379, "ECCENTRICITY": 0.00142635, "INCLINATION": 0.1198, "RA_OF_ASC_NODE": 86.2568, "ARG_OF_PERICENTER": 185.6475, "MEAN_ANOMALY": 122.9543, "EPHEMERIS_TYPE": 0, "CLASSIFICATION_TYPE": "U", "NORAD_CAT_ID": 41752, "ELEMENT_SET_NO": 999, "REV_AT_EPOCH": 3406, "BSTAR": 0, "MEAN_MOTION_DOT": -5.6e-07, "MEAN_MOTION_DDOT": 0}, "tle": {"line1": "1 41752U 16054A   25358.63184844 -.00000056  00000+0  00000+0 0  9996", "line2": "2 41752   0.1198  86.2568 0014263 185.6475 122.9543  1.00271379 34066"}}, "geometry": {"type": "Point", "coordinates": [149.11158163565406, 0.12140245848527428]}}]}